OBJECT_NAME,OBJECT_ID,EPOCH,MEAN_MOTION,ECCENTRICITY,INCLINATION,RA_OF_ASC_NODE,ARG_OF_PERICENTER,MEAN_ANOMALY,EPHEMERIS_TYPE,CLASSIFICATION_TYPE,NORAD_CAT_ID,ELEMENT_SET_NO,REV_AT_EPOCH,BSTAR,MEAN_MOTION_DOT,MEAN_MOTION_DDOT
STARLINK-36574,2026-014D,2026-07-16T03:55:10.940448,15.33437081,.00028084,97.2849,83.4912,62.9572,297.1957,0,U,67535,999,2847,.23587806E-3,.7546E-4,0
STARLINK-36572,2026-014E,2026-07-16T04:26:30.103296,15.33444576,.00016136,97.2845,83.4624,101.9083,258.2341,0,U,67536,999,2847,.31558517E-3,.10127E-3,0
STARLINK-36561,2026-014F,2026-07-16T04:14:45.411936,15.33435040,.00016493,97.2852,83.4706,86.7233,273.4199,0,U,67537,999,2847,.31916481E-3,.1024E-3,0
STARLINK-36397,2026-014G,2026-07-16T03:51:15.853824,15.33447360,.00022962,97.2848,83.4915,84.5614,275.5891,0,U,67538,999,2847,.24300842E-3,.7779E-4,0
STARLINK-36573,2026-014H,2026-07-16T04:10:51.284352,15.33465245,.00017242,97.2851,83.4788,101.1681,258.9756,0,U,67539,999,2847,.41457108E-3,.13341E-3,0
STARLINK-36585,2026-014J,2026-07-16T04:03:00.133920,15.33445996,.00015402,97.2844,83.4845,136.3062,223.8303,0,U,67540,999,2847,.28096891E-3,.9007E-4,0
STARLINK-36579,2026-014K,2026-07-16T04:49:59.428128,15.33446300,.00017984,97.2849,83.5926,104.2096,255.9346,0,U,67541,999,2848,.25692095E-3,.8229E-4,0
STARLINK-35934,2026-014L,2026-07-16T04:57:51.091776,15.33455428,.00014922,97.2836,83.5864,103.6759,256.4650,0,U,67542,999,2847,.84363503E-3,.27268E-3,0
STARLINK-36581,2026-014M,2026-07-16T04:06:55.336320,15.33446433,.00015009,97.2849,83.4826,105.4204,254.7204,0,U,67543,999,2847,.19473909E-3,.6217E-4,0
STARLINK-36565,2026-014N,2026-07-16T04:18:40.184928,15.33451636,.0001358,97.2846,83.4702,93.2987,266.8411,0,U,67544,999,2847,.21933472E-3,.7014E-4,0
STARLINK-36583,2026-014P,2026-07-16T05:13:28.754688,15.33449597,.00022334,97.2834,83.5706,120.1679,239.9785,0,U,67545,999,2848,.27300923E-3,.8751E-4,0
STARLINK-36580,2026-014Q,2026-07-16T04:30:24.724224,15.33447988,.00011802,97.2845,83.4608,111.5568,248.5801,0,U,67546,999,2847,.43105028E-3,.13868E-3,0
STARLINK-36584,2026-014R,2026-07-16T05:05:39.009984,15.33443632,.00017554,97.2848,83.5798,117.2169,242.9253,0,U,67547,999,2848,.2116882E-3,.6765E-4,0
STARLINK-36586,2026-014S,2026-07-16T05:01:44.248224,15.33462712,.00017486,97.2845,83.5847,100.0059,260.1381,0,U,67548,999,2848,.26185164E-3,.8393E-4,0
STARLINK-36564,2026-014T,2026-07-16T04:34:19.731360,15.33442894,.0001678,97.2846,83.4560,119.7390,240.4020,0,U,67549,999,2841,.21979771E-3,.7027E-4,0
STARLINK-36563,2026-014U,2026-07-16T04:53:55.713984,15.33414932,.00032081,97.2847,83.5899,90.4764,269.6846,0,U,67550,999,2848,.41746373E-3,.13415E-3,0
STARLINK-36566,2026-014V,2026-07-16T04:42:10.178496,15.33446386,.00026086,97.2851,83.4489,82.4138,277.7401,0,U,67551,999,2846,.25579331E-3,.8193E-4,0
STARLINK-36567,2026-014W,2026-07-16T05:09:33.829632,15.33446227,.00016187,97.2846,83.5716,124.9689,235.1706,0,U,67552,999,2847,.25286842E-3,.8098E-4,0
STARLINK-36569,2026-014X,2026-07-16T03:47:20.958144,15.33445764,.00016358,97.2848,83.5005,92.4422,267.7008,0,U,67553,999,2846,.32363136E-3,.10388E-3,0
STARLINK-36395,2026-014Y,2026-07-16T04:06:18.525600,15.33447335,.00015926,97.2843,86.3814,119.4784,240.6617,0,U,67554,999,2865,.31083368E-3,.9974E-4,0
STARLINK-36559,2026-014Z,2026-07-16T07:07:01.831872,15.33458220,.00022008,97.2842,83.6179,92.3345,267.8150,0,U,67555,999,2848,.59131756E-3,.19072E-3,0
MR-2,2026-015A,2026-07-16T04:47:37.707072,13.52696536,.00036394,88.9992,265.6008,31.1952,328.9416,0,U,67556,999,2363,.49069215E-4,.45E-6,0
MR-1,2026-015B,2026-07-16T04:52:19.233696,13.52670866,.00036545,88.9992,265.6007,29.7508,330.3851,0,U,67557,999,2363,.37855788E-4,.37E-6,0
STARLINK-36426,2026-014AA,2026-07-16T04:46:05.245248,15.33442629,.00031241,97.2847,83.5980,78.1203,282.0390,0,U,67560,999,2847,.26200173E-3,.8393E-4,0
STARLINK-36621,2026-016A,2026-07-16T02:59:50.886528,15.33442358,.00005491,97.2837,256.6618,357.8962,2.2278,0,U,67561,999,2654,-.22013411E-3,-.7174E-4,0
STARLINK-36398,2026-016B,2026-07-16T03:11:36.342528,15.33437132,.00009144,97.2844,256.8025,174.3219,185.8034,0,U,67562,999,2655,-.1167193E-3,-.384E-4,0
STARLINK-36403,2026-016C,2026-07-16T03:39:01.541088,15.33456127,.00004419,97.2832,256.7762,343.7628,16.3600,0,U,67563,999,2655,.49432525E-3,.15923E-3,0
STARLINK-36593,2026-016D,2026-07-16T03:46:51.335040,15.33454640,.00023362,97.2837,256.7688,91.3055,268.8456,0,U,67564,999,2655,.31113027E-3,.9986E-4,0
STARLINK-35725,2026-016E,2026-07-16T04:14:15.593568,15.33452790,.00003726,97.2834,256.7440,220.0550,140.0666,0,U,67565,999,2655,.30209033E-3,.9692E-4,0
STARLINK-36394,2026-016F,2026-07-16T02:44:12.393312,15.33450668,.00008903,97.2842,256.6776,207.6151,152.5044,0,U,67566,999,2654,.20943062E-3,.6693E-4,0
