STARLINK-36574          
1 67535U 26014D   26197.16332107  .00007546  00000+0  23588-3 0  9997
2 67535  97.2849  83.4912 0002808  62.9572 297.1957 15.33437081 28479
STARLINK-36572          
1 67536U 26014E   26197.18507064  .00010127  00000+0  31559-3 0  9992
2 67536  97.2845  83.4624 0001613 101.9083 258.2341 15.33444576 28472
STARLINK-36561          
1 67537U 26014F   26197.17691449  .00010240  00000+0  31916-3 0  9996
2 67537  97.2852  83.4706 0001649  86.7233 273.4199 15.33435040 28474
STARLINK-36397          
1 67538U 26014G   26197.16060016  .00007779  00000+0  24301-3 0  9999
2 67538  97.2848  83.4915 0002296  84.5614 275.5891 15.33447360 28470
STARLINK-36573          
1 67539U 26014H   26197.17420468  .00013341  00000+0  41457-3 0  9995
2 67539  97.2851  83.4788 0001724 101.1681 258.9756 15.33465245 28475
STARLINK-36585          
1 67540U 26014J   26197.16875155  .00009007  00000+0  28097-3 0  9992
2 67540  97.2844  83.4845 0001540 136.3062 223.8303 15.33445996 28472
STARLINK-36579          
1 67541U 26014K   26197.20138227  .00008229  00000+0  25692-3 0  9993
2 67541  97.2849  83.5926 0001798 104.2096 255.9346 15.33446300 28489
STARLINK-35934          
1 67542U 26014L   26197.20684134  .00027268  00000+0  84364-3 0  9992
2 67542  97.2836  83.5864 0001492 103.6759 256.4650 15.33455428 28471
STARLINK-36581          
1 67543U 26014M   26197.17147380  .00006217  00000+0  19474-3 0  9997
2 67543  97.2849  83.4826 0001500 105.4204 254.7204 15.33446433 28470
STARLINK-36565          
1 67544U 26014N   26197.17963177  .00007014  00000+0  21933-3 0  9997
2 67544  97.2846  83.4702 0001358  93.2987 266.8411 15.33451636 28479
STARLINK-36583          
1 67545U 26014P   26197.21769392  .00008751  00000+0  27301-3 0  9990
2 67545  97.2834  83.5706 0002233 120.1679 239.9785 15.33449597 28482
STARLINK-36580          
1 67546U 26014Q   26197.18778616  .00013868  00000+0  43105-3 0  9991
2 67546  97.2845  83.4608 0001180 111.5568 248.5801 15.33447988 28472
STARLINK-36584          
1 67547U 26014R   26197.21225706  .00006765  00000+0  21169-3 0  9997
2 67547  97.2848  83.5798 0001755 117.2169 242.9253 15.33443632 28487
STARLINK-36586          
1 67548U 26014S   26197.20953991  .00008393  00000+0  26185-3 0  9993
2 67548  97.2845  83.5847 0001748 100.0059 260.1381 15.33462712 28484
STARLINK-36564          
1 67549U 26014T   26197.19050615  .00007027  00000+0  21980-3 0  9994
2 67549  97.2846  83.4560 0001678 119.7390 240.4020 15.33442894 28417
STARLINK-36563          
1 67550U 26014U   26197.20411706  .00013415  00000+0  41746-3 0  9990
2 67550  97.2847  83.5899 0003208  90.4764 269.6846 15.33414932 28485
STARLINK-36566          
1 67551U 26014V   26197.19595114  .00008193  00000+0  25579-3 0  9998
2 67551  97.2851  83.4489 0002608  82.4138 277.7401 15.33446386 28467
STARLINK-36567          
1 67552U 26014W   26197.21497488  .00008098  00000+0  25287-3 0  9997
2 67552  97.2846  83.5716 0001618 124.9689 235.1706 15.33446227 28470
STARLINK-36569          
1 67553U 26014X   26197.15788146  .00010388  00000+0  32363-3 0  9993
2 67553  97.2848  83.5005 0001635  92.4422 267.7008 15.33445764 28467
STARLINK-36395          
1 67554U 26014Y   26197.17104775  .00009974  00000+0  31083-3 0  9993
2 67554  97.2843  86.3814 0001592 119.4784 240.6617 15.33447335 28658
STARLINK-36559          
1 67555U 26014Z   26197.29654898  .00019072  00000+0  59132-3 0  9998
2 67555  97.2842  83.6179 0002200  92.3345 267.8150 15.33458220 28480
MR-2                    
1 67556U 26015A   26197.19974198  .00000045  00000+0  49069-4 0  9996
2 67556  88.9992 265.6008 0003639  31.1952 328.9416 13.52696536 23638
MR-1                    
1 67557U 26015B   26197.20300039  .00000037  00000+0  37856-4 0  9998
2 67557  88.9992 265.6007 0003654  29.7508 330.3851 13.52670866 23633
STARLINK-36426          
1 67560U 26014AA  26197.19867182  .00008393  00000+0  26200-3 0  9999
2 67560  97.2847  83.5980 0003124  78.1203 282.0390 15.33442629 28471
STARLINK-36621          
1 67561U 26016A   26197.12489452 -.00007174  00000+0 -22013-3 0  9991
2 67561  97.2837 256.6618 0000549 357.8962   2.2278 15.33442358 26541
STARLINK-36398          
1 67562U 26016B   26197.13305952 -.00003840  00000+0 -11672-3 0  9990
2 67562  97.2844 256.8025 0000914 174.3219 185.8034 15.33437132 26550
STARLINK-36403          
1 67563U 26016C   26197.15210117  .00015923  00000+0  49433-3 0  9990
2 67563  97.2832 256.7762 0000441 343.7628  16.3600 15.33456127 26558
STARLINK-36593          
1 67564U 26016D   26197.15753860  .00009986  00000+0  31113-3 0  9996
2 67564  97.2837 256.7688 0002336  91.3055 268.8456 15.33454640 26557
STARLINK-35725          
1 67565U 26016E   26197.17656937  .00009692  00000+0  30209-3 0  9995
2 67565  97.2834 256.7440 0000372 220.0550 140.0666 15.33452790 26558
STARLINK-36394          
1 67566U 26016F   26197.11403233  .00006693  00000+0  20943-3 0  9991
2 67566  97.2842 256.6776 0000890 207.6151 152.5044 15.33450668 26541
